STARLINK-6348           
1 57360U 23099AJ  24210.41993154  .00001077  00000+0  94829-4 0  9999
2 57360  43.0040 197.9971 0001216 254.0107 106.0602 15.02527515 58366
STARLINK-6340           
1 57361U 23099AK  24210.42881392 -.00000784  00000+0 -42951-4 0  9996
2 57361  43.0038 198.0625 0001489 267.8287  92.2385 15.02533177 58360
STARLINK-6343           
1 57362U 23099AL  24209.95125833 -.00000370  00000+0 -12322-4 0  9994
2 57362  43.0004 200.4998 0000958 272.5378  87.5355 15.02534146 58292
STARLINK-6356           
1 57363U 23099AM  24209.95793968  .00001110  00000+0  97201-4 0  9995
2 57363  43.0025 200.5513 0000974 260.8108  99.2624 15.02531529 58290
STARLINK-6338           
1 57364U 23099AN  24209.95014701 -.00000016  00000+0  13884-4 0  9997
2 57364  43.0024 200.4892 0001261 266.7771  93.2927 15.02538015 58297
STARLINK-5007           
1 57365U 23099AP  24209.94015458  .00000637  00000+0  62249-4 0  9994
2 57365  43.0022 200.4117 0001274 266.8508  93.2189 15.02539937 58080
STARLINK-6174           
1 57366U 23099AQ  24209.94348568  .00000206  00000+0  30298-4 0  9997
2 57366  43.0019 200.4380 0001112 271.8046  88.2669 15.02537390 58249
STARLINK-6215           
1 57367U 23099AR  24210.20299148 -.00001599  00000+0 -10328-3 0  9997
2 57367  43.0021 185.9146 0001144 264.8376  95.2336 15.02542578 58482
STARLINK-6218           
1 57368U 23099AS  24210.40328485  .00000897  00000+0  81493-4 0  9997
2 57368  43.0009 197.8690 0001236 265.6133  94.4568 15.02532973 58360
STARLINK-6168           
1 57369U 23099AT  24210.27920628 -.00001496  00000+0 -95631-4 0  9997
2 57369  43.0022 198.6595 0001303 267.8929  92.1764 15.02545816 58296
STARLINK-5353           
1 57370U 23099AU  24210.26367112 -.00000361  00000+0 -11660-4 0  9991
2 57370  43.0003 198.5367 0000848 276.0480  84.0265 15.02534687 58234
STARLINK-6032           
1 57371U 23099AV  24210.27699061 -.00000855  00000+0 -48227-4 0  9991
2 57371  43.0027 198.6397 0001287 268.1391  91.9304 15.02532235 58290
STARLINK-5975           
1 57372U 23099AW  24210.25590288 -.00000732  00000+0 -39166-4 0  9997
2 57372  43.0036 198.4744 0000918 273.4561  86.6176 15.02530392 58136
STARLINK-6370           
1 57373U 23099AX  24210.26699621  .00000554  00000+0  56084-4 0  9998
2 57373  43.0012 198.5637 0001260 265.3123  94.7576 15.02542555 58349
STARLINK-6369           
1 57374U 23099AY  24209.43634033  .00000176  00000+0  28128-4 0  9990
2 57374  43.0030 190.4993 0001457 260.1357  99.9321 15.02535498 57629
STARLINK-6363           
1 57375U 23099AZ  24210.39551398  .00000511  00000+0  52911-4 0  9990
2 57375  43.0021 197.8084 0001323 268.0896  91.9795 15.02534202 58360
STARLINK-6367           
1 57376U 23099BA  24209.98666196 -.00000412  00000+0 -15464-4 0  9991
2 57376  43.0011 199.8997 0001270 273.0296  87.0401 15.02531967 58305
STARLINK-6358           
1 57377U 23099BB  24209.99109692  .00000412  00000+0  45589-4 0  9995
2 57377  43.0030 199.9341 0001620 261.4447  98.6212 15.02535774 58307
STARLINK-6364           
1 57378U 23099BC  24210.21102771 -.00000164  00000+0  29052-5 0  9997
2 57378  43.0046 172.9960 0001230 264.3515  95.7187 15.02532168 58637
STARLINK-6361           
1 57379U 23099BD  24210.45311190 -.00000026  00000+0  13173-4 0  9994
2 57379  43.0015 197.3827 0000902 268.7644  91.3095 15.02536051 58379
STARLINK-6366           
1 57380U 23099BE  24210.20991399  .00000636  00000+0  62102-4 0  9996
2 57380  43.0009 172.9801 0000536 240.7960 119.2829 15.02533796 58625
STARLINK-6371           
1 57381U 23099BF  24210.20078038 -.00000655  00000+0 -33438-4 0  9996
2 57381  43.0013 185.9146 0001068 272.3725  87.6995 15.02532205 58488
STARLINK-30240          
1 57404U 23102A   24210.16484763  .00001690  00000+0  14019-3 0  9999
2 57404  43.0023 212.4364 0001373 268.8343  91.2342 15.02529549 57559
STARLINK-30192          
1 57405U 23102B   24210.42743830 -.00000823  00000+0 -45907-4 0  9992
2 57405  43.0027 210.9538 0000896 261.4990  98.5750 15.02529799 57590
STARLINK-30195          
1 57406U 23102C   24210.42410504  .00000158  00000+0  26765-4 0  9992
2 57406  43.0021 210.9373 0001252 273.5309  86.5390 15.02532503 57591
STARLINK-30207          
1 57407U 23102D   24210.25812209 -.00000326  00000+0 -90860-5 0  9999
2 57407  43.0019 198.4933 0000856 305.6147  54.4616 15.02543754 57727
STARLINK-30205          
1 57408U 23102E   24210.41411488  .00001949  00000+0  15922-3 0  9996
2 57408  43.0009 210.8691 0001280 281.3501  78.7197 15.02552217 57595
STARLINK-30222          
1 57409U 23102F   24210.00526710  .00003800  00000+0  29625-3 0  9990
2 57409  43.0023 212.9613 0001089 287.6331  72.4392 15.02533169 57533
STARLINK-30172          
1 57410U 23102G   24210.47726439 -.00001981  00000+0 -13157-3 0  9996
2 57410  43.0042 210.4687 0001146 271.6279  88.4432 15.02542191 57603
STARLINK-30214          
1 57411U 23102H   24210.31433752  .00000659  00000+0  63811-4 0  9995
2 57411  43.0018 210.9860 0001071 269.8127  90.2592 15.02536621 57578
STARLINK-30182          
1 57412U 23102J   24210.47393123  .00000483  00000+0  50841-4 0  9994
2 57412  43.0020 210.4569 0001261 270.0463  90.0234 15.02536762 57602
STARLINK-30191          
1 57413U 23102K   24209.40029815 -.00000076  00000+0  94520-5 0  9992
2 57413  43.0016 216.1502 0001213 277.0093  83.0612 15.02533933 57442
STARLINK-30193          
1 57414U 23102L   24210.00192702  .00000612  00000+0  60394-4 0  9993
2 57414  43.0008 212.9318 0000751 287.0296  73.0464 15.02534455 57539
STARLINK-30208          
1 57415U 23102M   24210.46061195 -.00000219  00000+0 -11466-5 0  9997
2 57415  43.0026 210.3563 0001034 272.1956  87.8767 15.02536948 57399
STARLINK-30224          
1 57416U 23102N   24210.45729177  .00000765  00000+0  71674-4 0  9998
2 57416  42.9997 210.3302 0000401 300.6885  59.3918 15.02516701 57602
STARLINK-30043          
1 57417U 23102P   24209.98528147 -.00000683  00000+0 -35536-4 0  9997
2 57417  43.0016 212.8046 0001153 274.5128  85.5583 15.02528413 57537
STARLINK-30221          
1 57418U 23102Q   24210.45395205  .00001512  00000+0  12694-3 0  9998
2 57418  43.0026 210.3046 0001191 273.4204  86.6502 15.02537885 57601
STARLINK-30189          
1 57430U 23105A   24210.35405890 -.00000765  00000+0 -41586-4 0  9990
2 57430  43.0025 224.4145 0001425 272.2762  87.7918 15.02536633 56866
STARLINK-30170          
1 57431U 23105B   24210.48368139  .00000869  00000+0  79375-4 0  9999
2 57431  42.9993 223.6612 0000604  17.6385 342.4478 15.02539423 56939
STARLINK-30188          
1 57432U 23105C   24210.41388391  .00000961  00000+0  86220-4 0  9995
2 57432  42.9999 224.0012 0001682  15.0802 345.0091 15.02528027 56880
STARLINK-30105          
1 57433U 23105D   24210.10482132  .00011500  00000+0  28203-3 0  9997
2 57433  42.9961 147.5472 0001372 254.8182 105.2523 15.40712891 57859
STARLINK-30102          
1 57434U 23105E   24210.47369877 -.00001406  00000+0 -89036-4 0  9996
2 57434  43.0024 223.5859 0001297 272.1303  87.9391 15.02533382 56919
STARLINK-30180          
1 57435U 23105F   24209.47985452  .00000529  00000+0  54262-4 0  9994
2 57435  43.0033 229.0309 0001383 272.4216  87.6468 15.02535627 56830
STARLINK-30183          
1 57436U 23105G   24210.47037214 -.00000842  00000+0 -47266-4 0  9997
2 57436  43.0022 223.5648 0001218 270.4103  89.6600 15.02527563 56935
STARLINK-30237          
1 57437U 23105H   24210.39722660  .00000020  00000+0  16580-4 0  9996
2 57437  43.0019 223.8775 0001469 266.0915  93.9759 15.02547041 57157
STARLINK-30158          
1 57438U 23105J   24209.46986415  .00001073  00000+0  94513-4 0  9994
2 57438  43.0021 228.9593 0001299 277.4448  82.6247 15.02536527 56774
STARLINK-30173          
1 57439U 23105K   24210.48719994  .00001150  00000+0  10026-3 0  9997
2 57439  43.0017 210.1179 0001169 291.1120  68.9598 15.02518860 57091
STARLINK-30159          
1 57440U 23105L   24210.39390123 -.00000517  00000+0 -23200-4 0  9995
2 57440  43.0023 223.8495 0001126 302.9680  57.1054 15.02530325 56778
STARLINK-30160          
1 57441U 23105M   24210.39058954 -.00002162  00000+0 -14508-3 0  9997
2 57441  43.0024 223.8252 0001217 280.3514  79.7191 15.02515417 56752
STARLINK-30146          
1 57442U 23105N   24210.38723457  .00001162  00000+0  10108-3 0  9993
2 57442  43.0023 223.8025 0001427 271.4857  88.5822 15.02535503 56986
STARLINK-30197          
1 57443U 23105P   24210.38391070 -.00001019  00000+0 -60381-4 0  9998
2 57443  43.0017 223.7740 0001219 274.5703  85.5000 15.02531597 56980
STARLINK-30181          
1 57444U 23105Q   24210.50354533  .00000131  00000+0  24805-4 0  9999
2 57444  43.0037 222.9549 0001693 276.9569  83.1081 15.02544264 57005
STARLINK-30215          
1 57445U 23105R   24209.51081571  .00000340  00000+0  40218-4 0  9996
2 57445  43.0010 228.4018 0001307 272.8863  87.1830 15.02537212 56621
STARLINK-30162          
1 57446U 23105S   24210.43401879  .00002371  00000+0  19057-3 0  9999
2 57446  43.0021 210.5587 0000907 303.8864  56.1892 15.02531054 57081
STARLINK-30178          
1 57447U 23105T   24210.50687387  .00001073  00000+0  94517-4 0  9991
2 57447  43.0025 222.9789 0001261 273.7064  86.3634 15.02531549 56940
STARLINK-30196          
1 57448U 23105U   24210.49688453 -.00000034  00000+0  12523-4 0  9999
2 57448  43.0028 222.9037 0001386 271.0412  89.0271 15.02537643 56775
STARLINK-30225          
1 57449U 23105V   24209.42990830  .00000788  00000+0  73431-4 0  9996
2 57449  43.0023 228.6572 0001297 271.7237  88.3456 15.02536273 56877
STARLINK-30217          
1 57450U 23105W   24210.41738636  .00000866  00000+0  79195-4 0  9993
2 57450  43.0031 210.4784 0001303 266.8892  93.1802 15.02535616 57085
STARLINK-30216          
1 57451U 23105X   24209.75898572  .00001785  00000+0  14718-3 0  9995
2 57451  43.0030 226.8416 0001910 267.5539  92.5084 15.02539965 56689
